CCSDS_OMM_VERS = 2.0
CREATION_DATE  = 
ORIGINATOR     = 

OBJECT_NAME    = COSMOS 1743
OBJECT_ID      = 1986-034A
CENTER_NAME    = EARTH
REF_FRAME      = TEME
TIME_SYSTEM    = UTC
MEAN_ELEMENT_THEORY = SGP/SGP4

EPOCH          = 2025-11-06T04:48:00.597888
MEAN_MOTION    = 15.49617284
ECCENTRICITY   = .00082758
INCLINATION    = 82.5386
RA_OF_ASC_NODE = 202.4661
ARG_OF_PERICENTER = 37.7225
MEAN_ANOMALY   = 322.4604

EPHEMERIS_TYPE = 0
CLASSIFICATION_TYPE = U
NORAD_CAT_ID   = 16719
ELEMENT_SET_NO = 999
REV_AT_EPOCH   = 16107
BSTAR          = .69656819E-3
MEAN_MOTION_DOT = .38712E-3
MEAN_MOTION_DDOT = 0

CCSDS_OMM_VERS = 2.0
CREATION_DATE  = 
ORIGINATOR     = 

OBJECT_NAME    = SL-14 R/B
OBJECT_ID      = 1986-046B
CENTER_NAME    = EARTH
REF_FRAME      = TEME
TIME_SYSTEM    = UTC
MEAN_ELEMENT_THEORY = SGP/SGP4

EPOCH          = 2025-11-06T04:54:58.432608
MEAN_MOTION    = 14.85429473
ECCENTRICITY   = .00216427
INCLINATION    = 82.4841
RA_OF_ASC_NODE = 196.8129
ARG_OF_PERICENTER = 277.0028
MEAN_ANOMALY   = 82.8727

EPHEMERIS_TYPE = 0
CLASSIFICATION_TYPE = U
NORAD_CAT_ID   = 16792
ELEMENT_SET_NO = 999
REV_AT_EPOCH   = 10807
BSTAR          = .79246437E-4
MEAN_MOTION_DOT = .709E-5
MEAN_MOTION_DDOT = 0

CCSDS_OMM_VERS = 2.0
CREATION_DATE  = 
ORIGINATOR     = 

OBJECT_NAME    = SL-14 R/B
OBJECT_ID      = 1986-055B
CENTER_NAME    = EARTH
REF_FRAME      = TEME
TIME_SYSTEM    = UTC
MEAN_ELEMENT_THEORY = SGP/SGP4

EPOCH          = 2025-11-06T06:45:13.876704
MEAN_MOTION    = 14.85468306
ECCENTRICITY   = .00197258
INCLINATION    = 82.5209
RA_OF_ASC_NODE = 242.6254
ARG_OF_PERICENTER = 24.9236
MEAN_ANOMALY   = 88.8341

EPHEMERIS_TYPE = 0
CLASSIFICATION_TYPE = U
NORAD_CAT_ID   = 16882
ELEMENT_SET_NO = 999
REV_AT_EPOCH   = 10104
BSTAR          = .96361859E-4
MEAN_MOTION_DOT = .858E-5
MEAN_MOTION_DDOT = 0

CCSDS_OMM_VERS = 2.0
CREATION_DATE  = 
ORIGINATOR     = 

OBJECT_NAME    = AJISAI (EGS)
OBJECT_ID      = 1986-061A
CENTER_NAME    = EARTH
REF_FRAME      = TEME
TIME_SYSTEM    = UTC
MEAN_ELEMENT_THEORY = SGP/SGP4

EPOCH          = 2025-11-06T06:46:53.959872
MEAN_MOTION    = 12.44514135
ECCENTRICITY   = .00111625
INCLINATION    = 50.0069
RA_OF_ASC_NODE = 112.8199
ARG_OF_PERICENTER = 333.9794
MEAN_ANOMALY   = 90.5235

EPHEMERIS_TYPE = 0
CLASSIFICATION_TYPE = U
NORAD_CAT_ID   = 16908
ELEMENT_SET_NO = 999
REV_AT_EPOCH   = 45263
BSTAR          = -.10471735E-3
MEAN_MOTION_DOT = -.112E-5
MEAN_MOTION_DDOT = 0

CCSDS_OMM_VERS = 2.0
CREATION_DATE  = 
ORIGINATOR     = 

OBJECT_NAME    = COSMOS 1812
OBJECT_ID      = 1987-003A
CENTER_NAME    = EARTH
REF_FRAME      = TEME
TIME_SYSTEM    = UTC
MEAN_ELEMENT_THEORY = SGP/SGP4

EPOCH          = 2025-11-06T07:27:31.421376
MEAN_MOTION    = 15.68200319
ECCENTRICITY   = .00041197
INCLINATION    = 82.4890
RA_OF_ASC_NODE = 331.2279
ARG_OF_PERICENTER = 155.9095
MEAN_ANOMALY   = 204.2359

EPHEMERIS_TYPE = 0
CLASSIFICATION_TYPE = U
NORAD_CAT_ID   = 17295
ELEMENT_SET_NO = 999
REV_AT_EPOCH   = 12493
BSTAR          = .73826878E-3
MEAN_MOTION_DOT = .82987E-3
MEAN_MOTION_DDOT = 0

CCSDS_OMM_VERS = 2.0
CREATION_DATE  = 
ORIGINATOR     = 

OBJECT_NAME    = SL-14 R/B
OBJECT_ID      = 1987-024B
CENTER_NAME    = EARTH
REF_FRAME      = TEME
TIME_SYSTEM    = UTC
MEAN_ELEMENT_THEORY = SGP/SGP4

EPOCH          = 2025-11-06T05:10:38.328096
MEAN_MOTION    = 14.85968269
ECCENTRICITY   = .00171973
INCLINATION    = 82.5306
RA_OF_ASC_NODE = 208.7588
ARG_OF_PERICENTER = 313.4828
MEAN_ANOMALY   = 46.4957

EPHEMERIS_TYPE = 0
CLASSIFICATION_TYPE = U
NORAD_CAT_ID   = 17567
ELEMENT_SET_NO = 999
REV_AT_EPOCH   = 6979
BSTAR          = .85198728E-4
MEAN_MOTION_DOT = .769E-5
MEAN_MOTION_DDOT = 0

CCSDS_OMM_VERS = 2.0
CREATION_DATE  = 
ORIGINATOR     = 

OBJECT_NAME    = COSMOS 1833
OBJECT_ID      = 1987-027A
CENTER_NAME    = EARTH
REF_FRAME      = TEME
TIME_SYSTEM    = UTC
MEAN_ELEMENT_THEORY = SGP/SGP4

EPOCH          = 2025-11-06T04:32:53.242368
MEAN_MOTION    = 14.13022321
ECCENTRICITY   = .00208873
INCLINATION    = 70.9156
RA_OF_ASC_NODE = 225.6097
ARG_OF_PERICENTER = 23.3493
MEAN_ANOMALY   = 336.8572

EPHEMERIS_TYPE = 0
CLASSIFICATION_TYPE = U
NORAD_CAT_ID   = 17589
ELEMENT_SET_NO = 999
REV_AT_EPOCH   = 99286
BSTAR          = -.11367478E-3
MEAN_MOTION_DOT = -.261E-5
MEAN_MOTION_DDOT = 0

CCSDS_OMM_VERS = 2.0
CREATION_DATE  = 
ORIGINATOR     = 

OBJECT_NAME    = SL-16 R/B
OBJECT_ID      = 1987-027B
CENTER_NAME    = EARTH
REF_FRAME      = TEME
TIME_SYSTEM    = UTC
MEAN_ELEMENT_THEORY = SGP/SGP4

EPOCH          = 2025-11-06T02:21:16.056864
MEAN_MOTION    = 14.17144737
ECCENTRICITY   = .00068996
INCLINATION    = 71.0014
RA_OF_ASC_NODE = 176.9280
ARG_OF_PERICENTER = 298.0609
MEAN_ANOMALY   = 61.9817

EPHEMERIS_TYPE = 0
CLASSIFICATION_TYPE = U
NORAD_CAT_ID   = 17590
ELEMENT_SET_NO = 999
REV_AT_EPOCH   = 99787
BSTAR          = .17377518E-3
MEAN_MOTION_DOT = .302E-5
MEAN_MOTION_DDOT = 0

CCSDS_OMM_VERS = 2.0
CREATION_DATE  = 
ORIGINATOR     = 

OBJECT_NAME    = SL-14 R/B
OBJECT_ID      = 1987-038B
CENTER_NAME    = EARTH
REF_FRAME      = TEME
TIME_SYSTEM    = UTC
MEAN_ELEMENT_THEORY = SGP/SGP4

EPOCH          = 2025-11-06T06:46:04.488960
MEAN_MOTION    = 14.85203718
ECCENTRICITY   = .00186065
INCLINATION    = 82.5030
RA_OF_ASC_NODE = 53.0308
ARG_OF_PERICENTER = 208.7493
MEAN_ANOMALY   = 151.2699

EPHEMERIS_TYPE = 0
CLASSIFICATION_TYPE = U
NORAD_CAT_ID   = 17912
ELEMENT_SET_NO = 999
REV_AT_EPOCH   = 6091
BSTAR          = .96718419E-4
MEAN_MOTION_DOT = .855E-5
MEAN_MOTION_DDOT = 0

CCSDS_OMM_VERS = 2.0
CREATION_DATE  = 
ORIGINATOR     = 

OBJECT_NAME    = COSMOS 1844
OBJECT_ID      = 1987-041A
CENTER_NAME    = EARTH
REF_FRAME      = TEME
TIME_SYSTEM    = UTC
MEAN_ELEMENT_THEORY = SGP/SGP4

EPOCH          = 2025-11-06T06:49:53.856768
MEAN_MOTION    = 14.14514410
ECCENTRICITY   = .00321106
INCLINATION    = 70.8978
RA_OF_ASC_NODE = 294.4605
ARG_OF_PERICENTER = 211.2822
MEAN_ANOMALY   = 148.6391

EPHEMERIS_TYPE = 0
CLASSIFICATION_TYPE = U
NORAD_CAT_ID   = 17973
ELEMENT_SET_NO = 999
REV_AT_EPOCH   = 98613
BSTAR          = .27868029E-3
MEAN_MOTION_DOT = .489E-5
MEAN_MOTION_DDOT = 0

CCSDS_OMM_VERS = 2.0
CREATION_DATE  = 
ORIGINATOR     = 

OBJECT_NAME    = SL-14 R/B
OBJECT_ID      = 1987-055B
CENTER_NAME    = EARTH
REF_FRAME      = TEME
TIME_SYSTEM    = UTC
MEAN_ELEMENT_THEORY = SGP/SGP4

EPOCH          = 2025-11-05T21:01:39.145728
MEAN_MOTION    = 14.85459247
ECCENTRICITY   = .00220477
INCLINATION    = 82.4966
RA_OF_ASC_NODE = 105.7285
ARG_OF_PERICENTER = 64.7261
MEAN_ANOMALY   = 295.6236

EPHEMERIS_TYPE = 0
CLASSIFICATION_TYPE = U
NORAD_CAT_ID   = 18153
ELEMENT_SET_NO = 999
REV_AT_EPOCH   = 5155
BSTAR          = .765178E-4
MEAN_MOTION_DOT = .687E-5
MEAN_MOTION_DDOT = 0

CCSDS_OMM_VERS = 2.0
CREATION_DATE  = 
ORIGINATOR     = 

OBJECT_NAME    = COSMOS 1867
OBJECT_ID      = 1987-060A
CENTER_NAME    = EARTH
REF_FRAME      = TEME
TIME_SYSTEM    = UTC
MEAN_ELEMENT_THEORY = SGP/SGP4

EPOCH          = 2025-11-06T06:35:01.159872
MEAN_MOTION    = 14.31476734
ECCENTRICITY   = .00137379
INCLINATION    = 65.0101
RA_OF_ASC_NODE = 292.3194
ARG_OF_PERICENTER = 267.4567
MEAN_ANOMALY   = 92.4945

EPHEMERIS_TYPE = 0
CLASSIFICATION_TYPE = U
NORAD_CAT_ID   = 18187
ELEMENT_SET_NO = 999
REV_AT_EPOCH   = 227
BSTAR          = .37319254E-4
MEAN_MOTION_DOT = -.1E-7
MEAN_MOTION_DDOT = 0

