COSMOS 1743             
1 16719U 86034A   25310.20000692  .00038712  00000+0  69657-3 0  9991
2 16719  82.5386 202.4661 0008275  37.7225 322.4604 15.49617284161070
SL-14 R/B               
1 16792U 86046B   25310.20484297  .00000709  00000+0  79246-4 0  9993
2 16792  82.4841 196.8129 0021642 277.0028  82.8727 14.85429473108078
SL-14 R/B               
1 16882U 86055B   25310.28141061  .00000858  00000+0  96362-4 0  9993
2 16882  82.5209 242.6254 0019725  24.9236  88.8341 14.85468306101041
AJISAI (EGS)            
1 16908U 86061A   25310.28256898 -.00000112  00000+0 -10472-3 0  9996
2 16908  50.0069 112.8199 0011162 333.9794  90.5235 12.44514135452630
COSMOS 1812             
1 17295U 87003A   25310.31078034  .00082987  00000+0  73827-3 0  9992
2 17295  82.4890 331.2279 0004119 155.9095 204.2359 15.68200319124932
SL-14 R/B               
1 17567U 87024B   25310.21572139  .00000769  00000+0  85199-4 0  9995
2 17567  82.5306 208.7588 0017197 313.4828  46.4957 14.85968269 69798
COSMOS 1833             
1 17589U 87027A   25310.18950512 -.00000261  00000+0 -11367-3 0  9997
2 17589  70.9156 225.6097 0020887  23.3493 336.8572 14.13022321992867
SL-16 R/B               
1 17590U 87027B   25310.09810251  .00000302  00000+0  17378-3 0  9996
2 17590  71.0014 176.9280 0006899 298.0609  61.9817 14.17144737997877
SL-14 R/B               
1 17912U 87038B   25310.28199640  .00000855  00000+0  96718-4 0  9998
2 17912  82.5030  53.0308 0018606 208.7493 151.2699 14.85203718 60911
COSMOS 1844             
1 17973U 87041A   25310.28465112  .00000489  00000+0  27868-3 0  9991
2 17973  70.8978 294.4605 0032110 211.2822 148.6391 14.14514410986137
SL-14 R/B               
1 18153U 87055B   25309.87614752  .00000687  00000+0  76518-4 0  9993
2 18153  82.4966 105.7285 0022047  64.7261 295.6236 14.85459247 51552
COSMOS 1867             
1 18187U 87060A   25310.27431898 -.00000001  00000+0  37319-4 0  9997
2 18187  65.0101 292.3194 0013737 267.4567  92.4945 14.31476734  2272
